STARLINK-32391          
1 61855U 24202L   26068.51963344 -.00005904  00000+0 -20506-3 0  9997
2 61855  43.0046 238.7795 0002418 308.2323  51.8311 15.27594358 75304
TRANSPORTER-12 OBJECT AZ
1 62656U 25009AZ  26068.71026235  .00016057  00000+0  54903-3 0  9991
2 62656  97.3981 151.9913 0000987  45.3581 314.7740 15.30349724 63792
